ARIANE 40 R/B           
1 20443U 90005H   26053.87288808  .00000246  00000+0  91827-4 0  9994
2 20443  98.3118 114.9735 0009071 246.0239 114.0001 14.39859676890673
DELTA 2 R/B(1)          
1 20453U 90008B   26053.67082925  .00068742  00000+0  86760-3 0  9992
2 20453  35.6038 273.2539 0088412 118.7350 242.2303 15.53747555923793
COSMOS 2058             
1 20465U 90010A   26053.94898804  .00004678  00000+0  27682-3 0  9995
2 20465  82.4671  61.9501 0010442  33.2974 326.8911 15.11175959940016
SL-14 R/B               
1 20466U 90010B   26053.91603742  .00000388  00000+0  44076-4 0  9999
2 20466  82.5003 281.2689 0019626 353.0858   7.0083 14.83555154926297
SL-14 R/B               
1 20511U 90018B   26053.91963261  .00000499  00000+0  59572-4 0  9993
2 20511  82.5181 236.8971 0017292 137.1365 223.1201 14.82127088920394
HST                     
1 20580U 90037B   26053.93398555  .00008245  00000+0  27458-3 0  9994
2 20580  28.4686 140.6395 0001142 321.3922  38.6592 15.29225828771056
SL-16 R/B               
1 20625U 90046B   26053.92262574  .00000082  00000+0  67032-4 0  9998
2 20625  71.0018 328.9267 0015675 319.8925  40.1039 14.15014875846306
COSMOS 2084             
1 20663U 90055A   26053.91100703  .00003177  00000+0  23264-3 0  9990
2 20663  62.7913  25.9773 0019400 186.6120 173.4728 15.05545603934099
SL-6 R/B(2)             
1 20666U 90055D   26053.94007587  .00002274  00000+0  17964-3 0  9999
2 20666  62.7834 304.0076 0022493 343.1628  16.8722 15.03517631935970
SL-8 R/B                
1 20775U 90078B   26053.85685135  .00018056  00000+0  52992-3 0  9991
2 20775  82.9005 264.6463 0365405  63.7467 300.0818 14.88528215807092
SL-8 R/B                
1 21088U 91006B   26053.96179937  .00000050  00000+0  34661-4 0  9990
2 21088  82.9456 180.9943 0023678  77.7766  33.2712 13.77492600762041
OKEAN-3                 
1 21397U 91039A   26053.91640633  .00003917  00000+0  27585-3 0  9991
2 21397  82.5207 351.1522 0015096  27.1109 333.0902 15.04688192862817
COSMOS 2151             
1 21422U 91042A   26053.87478433  .00001758  00000+0  13881-3 0  9991
2 21422  82.4942  97.9698 0014077 107.9362 252.3399 15.00043875860973
SL-14 R/B               
1 21423U 91042B   26053.90198662  .00000451  00000+0  54108-4 0  9996
2 21423  82.4898 234.0512 0015630 291.7061  68.2489 14.81813023850888
ERS-1                   
1 21574U 91050A   26053.89142522  .00000303  00000+0  11160-3 0  9990
2 21574  98.7892  71.7539 0030964 245.3711 114.4250 14.39436394813602
ARIANE 40 R/B           
1 21610U 91050F   26053.90822815  .00000270  00000+0  93447-4 0  9995
2 21610  98.2046 106.6973 0004310 113.2764 246.8880 14.42881683816865
INTERCOSMOS 25          
1 21819U 91086A   26053.96230368  .00001167  00000+0  22306-3 0  9998
2 21819  82.6075 318.9082 1487071 148.6573 221.2514 12.11953606494901
SL-8 R/B                
1 21876U 92008B   26053.74389123  .00000008  00000+0 -77084-5 0  9995
2 21876  82.9239 278.8982 0034725 174.4289 255.5524 13.75969896707363
SL-8 R/B                
1 21938U 92020B   26053.71747751  .00000098  00000+0  85505-4 0  9994
2 21938  82.9343 164.8743 0028365 342.0323 126.3415 13.75547522699072
USA 81                  
1 21949U 92023A   26053.70922305  .00000193  00000+0  63904-4 0  9993
2 21949  85.0112 140.0807 0002736  90.8265 269.3241 14.32362390 92643
COSMOS 2219             
1 22219U 92076A   26053.73670615  .00000337  00000+0  20141-3 0  9994
2 22219  71.0593  49.3265 0019683 227.0700 132.8772 14.14082102716262
SL-16 R/B               
1 22220U 92076B   26053.89036558  .00000182  00000+0  11463-3 0  9990
2 22220  70.9980 219.5467 0010979 123.5392  38.2575 14.16855400719739
COSMOS 2221             
1 22236U 92080A   26053.72329224  .00001694  00000+0  14810-3 0  9997
2 22236  82.5033 293.4174 0012981 240.8747 119.1176 14.96138229778554
SL-16 R/B               
1 22285U 92093B   26053.68677252  .00000236  00000+0  14500-3 0  9994
2 22285  71.0221  35.7597 0005815 309.9487  50.1125 14.15447855711039
COSMOS 2228             
1 22286U 92094A   26053.94999587  .00002055  00000+0  17538-3 0  9998
2 22286  82.5145 251.4261 0017921 356.2586   3.8499 14.97112098773858
SL-16 R/B               
1 22566U 93016B   26053.93770790  .00000041  00000+0  45672-4 0  9990
2 22566  71.0044 246.1667 0010873 334.5130  25.5455 14.15300158700088
COSMOS 2242             
1 22626U 93024A   26053.72533256  .00001783  00000+0  15439-3 0  9998
2 22626  82.5169 281.0320 0016445   1.0937 359.0318 14.96482557778155
SL-16 R/B               
1 22803U 93059B   26053.65483917  .00000150  00000+0  98106-4 0  9993
2 22803  70.9899  42.8311 0019122 237.2173 122.7109 14.17228014677404
ARIANE 40 R/B           
1 22830U 93061H   26053.68497678  .00000187  00000+0  84335-4 0  9997
2 22830  98.4950 122.8666 0009984 333.9382  26.1298 14.32852227691958
COSMOS 2278             
1 23087U 94023A   26053.81643274  .00000369  00000+0  21746-3 0  9999
2 23087  71.0520 206.2127 0007269  42.8146 317.3542 14.14368093642709
SL-16 R/B               
1 23088U 94023B   26053.86962995  .00000205  00000+0  13067-3 0  9995
2 23088  70.9991 102.0132 0005088 299.4455  60.6160 14.15011658643998
SL-16 R/B               
1 23343U 94074B   26053.86719595  .00000477  00000+0  70617-4 0  9997
2 23343  97.7130  85.2839 0005118 269.6857 265.5346 14.79388834685057
SL-16 R/B               
1 23405U 94077B   26053.92767600 -.00000021  00000+0  13553-4 0  9998
2 23405  70.9842  23.5430 0003793 227.8828 132.1972 14.15564061614146
ARIANE 40+ R/B          
1 23561U 95021B   26053.96635853  .00000284  00000+0  10458-3 0  9999
2 23561  98.4528 125.6460 0006917 176.8250 356.5378 14.39760711617124
SL-16 R/B               
1 23705U 95058B   26053.86325934 -.00000214  00000+0 -84908-4 0  9991
2 23705  71.0201 211.3806 0011294 152.0074 208.1658 14.15494778565755
SL-16 R/B               
1 24298U 96051B   26053.72694825  .00000101  00000+0  81139-4 0  9992
2 24298  70.7581 206.9076 0016413 169.6125 190.5338 14.12411359519533
ORBVIEW 2 (SEASTAR)     
1 24883U 97037A   26053.91979658  .00000297  00000+0  11960-3 0  9998
2 24883  98.8539 217.8422 0003192 101.3805 258.7738 14.35482332506352
SL-16 R/B               
1 25400U 98043G   26053.71662289  .00000078  00000+0  51577-4 0  9995
2 25400  98.8228   6.9763 0010833  60.6845 299.5416 14.26045961436855
SL-16 R/B               
1 25407U 98045B   26053.88149752 -.00000010  00000+0  18965-4 0  9998
2 25407  71.0101 212.7132 0005961  32.6511 327.4980 14.16191356425008
ISS (ZARYA)             
1 25544U 98067A   26053.73352465  .00014029  00000+0  26931-3 0  9990
2 25544  51.6318 146.2856 0008481 123.1422 237.0381 15.48216789554014
CZ-4B R/B               
1 25732U 99025C   26053.71861458  .00000026  00000+0  33244-4 0  9997
2 25732  98.6660  98.3526 0037547  29.5627  79.7911 14.18262113386040
OKEAN-O                 
1 25860U 99039A   26053.91648302  .00000683  00000+0  96444-4 0  9997
2 25860  97.9477 113.9558 0001637  77.4875 282.6520 14.80309496432203
SL-16 R/B               
1 25861U 99039B   26053.70769652  .00000548  00000+0  76301-4 0  9997
2 25861  98.0001 112.8242 0013678 309.4863  50.5139 14.81708598434645
DELTA 2 R/B             
1 25876U 99041E   26053.85834302  .00001807  00000+0  32825-3 0  9998
2 25876  51.7660   0.5113 0502208 304.6365  50.8181 14.11780962360932
HELIOS 1B               
1 25977U 99064A   26053.78202682  .00001786  00000+0  20282-3 0  9997
2 25977  98.1711 315.5863 0002447  95.0929 265.0566 14.87630971683048
TERRA                   
1 25994U 99068A   26053.94333914  .00000443  00000+0  99309-4 0  9997
2 25994  97.9626 107.9391 0001655 191.6025 341.3580 14.60997353392927
SL-16 R/B               
1 26070U 00006B   26053.89306364  .00000172  00000+0  11141-3 0  9996
2 26070  71.0021 128.9511 0017702 210.5920 149.4172 14.15819191346462
TITAN 4B R/B            
1 26474U 00047B   26053.92023175  .00003767  00000+0  23948-3 0  9990
2 26474  67.9882  82.0383 0037715  53.1807 307.2791 15.09415021390689
ENVISAT                 
1 27386U 02009A   26053.86263475  .00000128  00000+0  55327-4 0  9990
2 27386  98.3702   7.8154 0001353  86.5125 289.3797 14.39030798257048
IDEFIX & ARIANE 42P R/B 
1 27422U 02021B   26053.74268973  .00000285  00000+0  12471-3 0  9996
2 27422  98.5857 352.5291 0010810 228.6181 131.4074 14.31014448241889
AQUA                    
1 27424U 02022A   26053.89416736  .00001043  00000+0  21810-3 0  9997
2 27424  98.4148  20.9929 0000977  47.4228 337.2360 14.61936703266576
CZ-4B R/B               
1 27432U 02024C   26053.88784934  .00000023  00000+0  34586-4 0  9997
2 27432  98.8875 107.3668 0051051  65.7170 111.9562 14.14544760227141
MIDORI II (ADEOS-II)    
1 27597U 02056A   26053.89262678  .00000261  00000+0  12025-3 0  9998
2 27597  98.7743  12.2706 0002023  64.2298 295.9092 14.29272716208182
H-2A R/B                
1 27601U 02056E   26053.91345499  .00000283  00000+0  11369-3 0  9994
2 27601  98.3175  14.8441 0069589 204.7928 221.5459 14.33749719211990
CZ-4B R/B               
1 28059U 03049C   26053.94221324  .00000428  00000+0  10987-3 0  9994
2 28059  98.6865  48.2703 0047014 277.0080  82.5770 14.55003568184450
CZ-2C R/B               
1 28222U 04012C   26053.69714852  .00061479  00000+0  68164-3 0  9995
2 28222  97.7261 117.5891 0014377   9.4422 350.7103 15.62643131201931
SL-16 R/B               
1 28353U 04021B   26053.89024450  .00000175  00000+0  11581-3 0  9997
2 28353  70.9989 263.5524 0003346  43.1694 316.9691 14.14598371120747
CZ-4B R/B               
1 28415U 04035C   26053.65982596  .00009270  00000+0  32891-3 0  9991
2 28415  97.3525  88.0840 0032866  25.2669 335.0170 15.28759933177619
CZ-2C R/B               
1 28480U 04046B   26053.69044515  .00000129  00000+0  63304-4 0  9997
2 28480  98.1990 329.6068 0138960 198.7823 160.8204 14.26986569106362
